[{"OBJECT_NAME":"STARLINK-3669","OBJECT_ID":"2022-025R","EPOCH":"2026-03-09T06:46:46.342848","MEAN_MOTION":15.29361516,"ECCENTRICITY":0.00011966,"INCLINATION":53.1571,"RA_OF_ASC_NODE":26.2555,"ARG_OF_PERICENTER":96.9163,"MEAN_ANOMALY":263.1974,"EPHEMERIS_TYPE":0,"CLASSIFICATION_TYPE":"U","NORAD_CAT_ID":51971,"ELEMENT_SET_NO":999,"REV_AT_EPOCH":22095,"BSTAR":4.4702096e-5,"MEAN_MOTION_DOT":9.34e-6,"MEAN_MOTION_DDOT":0},{"OBJECT_NAME":"TROLL","OBJECT_ID":"2025-009BB","EPOCH":"2026-03-09T05:24:19.835712","MEAN_MOTION":15.28164315,"ECCENTRICITY":0.00018165,"INCLINATION":97.3932,"RA_OF_ASC_NODE":150.7169,"ARG_OF_PERICENTER":59.185,"MEAN_ANOMALY":300.9568,"EPHEMERIS_TYPE":0,"CLASSIFICATION_TYPE":"U","NORAD_CAT_ID":62658,"ELEMENT_SET_NO":999,"REV_AT_EPOCH":11817,"BSTAR":0.00048220305,"MEAN_MOTION_DOT":0.00013174,"MEAN_MOTION_DDOT":0}]
