STARLINK-3669           
1 51971U 22025R   26068.28248082  .00000934  00000+0  44702-4 0  9996
2 51971  53.1571  26.2555 0001196  96.9163 263.1974 15.29361516220952
TROLL                   
1 62658U 25009BB  26068.22522958  .00013174  00000+0  48220-3 0  9994
2 62658  97.3932 150.7169 0001816  59.1850 300.9568 15.28164315118170
